[{"OBJECT_NAME":"STARLINK-35217","OBJECT_ID":"2025-210F","EPOCH":"2026-03-09T22:15:28.405440","MEAN_MOTION":15.302208,"ECCENTRICITY":0.00013291,"INCLINATION":53.1599,"RA_OF_ASC_NODE":306.2446,"ARG_OF_PERICENTER":80.9871,"MEAN_ANOMALY":279.128,"EPHEMERIS_TYPE":0,"CLASSIFICATION_TYPE":"U","NORAD_CAT_ID":65627,"ELEMENT_SET_NO":999,"REV_AT_EPOCH":2776,"BSTAR":0.00071735138,"MEAN_MOTION_DOT":0.0002096,"MEAN_MOTION_DDOT":0},{"OBJECT_NAME":"FENGYUN 1C DEB","OBJECT_ID":"1999-025CCU","EPOCH":"2026-03-09T04:16:51.250080","MEAN_MOTION":14.7380712,"ECCENTRICITY":0.02770831,"INCLINATION":98.1363,"RA_OF_ASC_NODE":145.1449,"ARG_OF_PERICENTER":173.2574,"MEAN_ANOMALY":217.8544,"EPHEMERIS_TYPE":0,"CLASSIFICATION_TYPE":"U","NORAD_CAT_ID":31686,"ELEMENT_SET_NO":999,"REV_AT_EPOCH":99091,"BSTAR":0.001175879,"MEAN_MOTION_DOT":0.00014291,"MEAN_MOTION_DDOT":0}]
